[
  {
    "OBJECT_NAME": "STARLINK-2314",
    "OBJECT_ID": "21018B",
    "EPOCH": "2025-11-11T05:12:06.563232",
    "MEAN_MOTION": 15.0641035,
    "ECCENTRICITY": 0.0001696,
    "INCLINATION": 53.0552,
    "RA_OF_ASC_NODE": 38.4649,
    "ARG_OF_PERICENTER": 77.4328,
    "MEAN_ANOMALY": 282.685,
    "EPHEMERIS_TYPE": 0,
    "CLASSIFICATION_TYPE": "U",
    "NORAD_CAT_ID": 47788,
    "ELEMENT_SET_NO": 999,
    "REV_AT_EPOCH": 25910,
    "BSTAR": 0.00042044,
    "MEAN_MOTION_DOT": 5.988e-05,
    "MEAN_MOTION_DDOT": 0.0,
    "TLE_LINE1": "1 47788U 21018B   25315.21674263  .00005988  00000+0  42044-3 0  9999",
    "TLE_LINE2": "2 47788  53.0552  38.4649 0001696  77.4328 282.6850 15.06410350259106",
    "COMMENT": "Grouped by shell and plane from TLE"
  },
  {
    "OBJECT_NAME": "STARLINK-2319",
    "OBJECT_ID": "21018D",
    "EPOCH": "2025-11-11T05:47:16.552320",
    "MEAN_MOTION": 15.06409798,
    "ECCENTRICITY": 9.16e-05,
    "INCLINATION": 53.0561,
    "RA_OF_ASC_NODE": 33.3575,
    "ARG_OF_PERICENTER": 66.3158,
    "MEAN_ANOMALY": 293.7927,
    "EPHEMERIS_TYPE": 0,
    "CLASSIFICATION_TYPE": "U",
    "NORAD_CAT_ID": 47790,
    "ELEMENT_SET_NO": 999,
    "REV_AT_EPOCH": 25917,
    "BSTAR": 0.00014562,
    "MEAN_MOTION_DOT": 1.889e-05,
    "MEAN_MOTION_DDOT": 0.0,
    "TLE_LINE1": "1 47790U 21018D   25315.24116380  .00001889  00000+0  14562-3 0  9996",
    "TLE_LINE2": "2 47790  53.0561  33.3575 0000916  66.3158 293.7927 15.06409798259172",
    "COMMENT": "Grouped by shell and plane from TLE"
  },
  {
    "OBJECT_NAME": "STARLINK-2388",
    "OBJECT_ID": "21018W",
    "EPOCH": "2025-11-11T05:52:35.125536",
    "MEAN_MOTION": 15.06400569,
    "ECCENTRICITY": 8.84e-05,
    "INCLINATION": 53.0561,
    "RA_OF_ASC_NODE": 33.3381,
    "ARG_OF_PERICENTER": 50.2092,
    "MEAN_ANOMALY": 309.8975,
    "EPHEMERIS_TYPE": 0,
    "CLASSIFICATION_TYPE": "U",
    "NORAD_CAT_ID": 47807,
    "ELEMENT_SET_NO": 999,
    "REV_AT_EPOCH": 25915,
    "BSTAR": 0.0,
    "MEAN_MOTION_DOT": -3.275e-05,
    "MEAN_MOTION_DDOT": 0.0,
    "TLE_LINE1": "1 47807U 21018W   25315.24485099 -.00003275  00000+0 -20108-3 0  9997",
    "TLE_LINE2": "2 47807  53.0561  33.3381 0000884  50.2092 309.8975 15.06400569259156",
    "COMMENT": "Grouped by shell and plane from TLE"
  },
  {
    "OBJECT_NAME": "STARLINK-2431",
    "OBJECT_ID": "21018BE",
    "EPOCH": "2025-11-11T05:41:57.854688",
    "MEAN_MOTION": 15.06420984,
    "ECCENTRICITY": 9.09e-05,
    "INCLINATION": 53.056,
    "RA_OF_ASC_NODE": 33.3729,
    "ARG_OF_PERICENTER": 66.3183,
    "MEAN_ANOMALY": 293.7902,
    "EPHEMERIS_TYPE": 0,
    "CLASSIFICATION_TYPE": "U",
    "NORAD_CAT_ID": 47839,
    "ELEMENT_SET_NO": 999,
    "REV_AT_EPOCH": 25917,
    "BSTAR": 0.0005807900000000001,
    "MEAN_MOTION_DOT": 8.385e-05,
    "MEAN_MOTION_DDOT": 0.0,
    "TLE_LINE1": "1 47839U 21018BE  25315.23747517  .00008385  00000+0  58079-3 0  9990",
    "TLE_LINE2": "2 47839  53.0560  33.3729 0000909  66.3183 293.7902 15.06420984259179",
    "COMMENT": "Grouped by shell and plane from TLE"
  },
  {
    "OBJECT_NAME": "STARLINK-3162",
    "OBJECT_ID": "21104D",
    "EPOCH": "2025-11-11T05:01:28.364448",
    "MEAN_MOTION": 15.08846149,
    "ECCENTRICITY": 0.000125,
    "INCLINATION": 53.2176,
    "RA_OF_ASC_NODE": 30.9985,
    "ARG_OF_PERICENTER": 87.0078,
    "MEAN_ANOMALY": 273.1058,
    "EPHEMERIS_TYPE": 0,
    "CLASSIFICATION_TYPE": "U",
    "NORAD_CAT_ID": 49411,
    "ELEMENT_SET_NO": 999,
    "REV_AT_EPOCH": 22088,
    "BSTAR": 7.719700000000001e-05,
    "MEAN_MOTION_DOT": 9.41e-06,
    "MEAN_MOTION_DDOT": 0.0,
    "TLE_LINE1": "1 49411U 21104D   25315.20935607  .00000941  00000+0  77197-4 0  9993",
    "TLE_LINE2": "2 49411  53.2176  30.9985 0001250  87.0078 273.1058 15.08846149220889",
    "COMMENT": "Grouped by shell and plane from TLE"
  },
  {
    "OBJECT_NAME": "STARLINK-3157",
    "OBJECT_ID": "21104F",
    "EPOCH": "2025-11-11T04:57:33.398784",
    "MEAN_MOTION": 15.0883992,
    "ECCENTRICITY": 0.000163,
    "INCLINATION": 53.2183,
    "RA_OF_ASC_NODE": 31.018,
    "ARG_OF_PERICENTER": 90.3649,
    "MEAN_ANOMALY": 269.7531,
    "EPHEMERIS_TYPE": 0,
    "CLASSIFICATION_TYPE": "U",
    "NORAD_CAT_ID": 49413,
    "ELEMENT_SET_NO": 999,
    "REV_AT_EPOCH": 22088,
    "BSTAR": 9.408300000000001e-05,
    "MEAN_MOTION_DOT": 1.21e-05,
    "MEAN_MOTION_DDOT": 0.0,
    "TLE_LINE1": "1 49413U 21104F   25315.20663656  .00001210  00000+0  94083-4 0  9990",
    "TLE_LINE2": "2 49413  53.2183  31.0180 0001630  90.3649 269.7531 15.08839920220887",
    "COMMENT": "Grouped by shell and plane from TLE"
  },
  {
    "OBJECT_NAME": "STARLINK-3159",
    "OBJECT_ID": "21104H",
    "EPOCH": "2025-11-11T04:50:52.325664",
    "MEAN_MOTION": 15.08841564,
    "ECCENTRICITY": 0.0001303,
    "INCLINATION": 53.2199,
    "RA_OF_ASC_NODE": 31.0334,
    "ARG_OF_PERICENTER": 93.3194,
    "MEAN_ANOMALY": 266.7948,
    "EPHEMERIS_TYPE": 0,
    "CLASSIFICATION_TYPE": "U",
    "NORAD_CAT_ID": 49415,
    "ELEMENT_SET_NO": 999,
    "REV_AT_EPOCH": 22087,
    "BSTAR": 0.0001182,
    "MEAN_MOTION_DOT": 1.594e-05,
    "MEAN_MOTION_DDOT": 0.0,
    "TLE_LINE1": "1 49415U 21104H   25315.20199451  .00001594  00000+0  11820-3 0  9991",
    "TLE_LINE2": "2 49415  53.2199  31.0334 0001303  93.3194 266.7948 15.08841564220877",
    "COMMENT": "Grouped by shell and plane from TLE"
  },
  {
    "OBJECT_NAME": "STARLINK-3154",
    "OBJECT_ID": "21104K",
    "EPOCH": "2025-11-11T05:33:12.438144",
    "MEAN_MOTION": 15.08849,
    "ECCENTRICITY": 0.0001422,
    "INCLINATION": 53.2186,
    "RA_OF_ASC_NODE": 30.5509,
    "ARG_OF_PERICENTER": 97.3953,
    "MEAN_ANOMALY": 262.7201,
    "EPHEMERIS_TYPE": 0,
    "CLASSIFICATION_TYPE": "U",
    "NORAD_CAT_ID": 49417,
    "ELEMENT_SET_NO": 999,
    "REV_AT_EPOCH": 22088,
    "BSTAR": 2.5865e-05,
    "MEAN_MOTION_DOT": 1.24e-06,
    "MEAN_MOTION_DDOT": 0.0,
    "TLE_LINE1": "1 49417U 21104K   25315.23139396  .00000124  00000+0  25865-4 0  9991",
    "TLE_LINE2": "2 49417  53.2186  30.5509 0001422  97.3953 262.7201 15.08849000220884",
    "COMMENT": "Grouped by shell and plane from TLE"
  },
  {
    "OBJECT_NAME": "STARLINK-3158",
    "OBJECT_ID": "21104AA",
    "EPOCH": "2025-11-10T14:23:10.987872",
    "MEAN_MOTION": 15.08845301,
    "ECCENTRICITY": 0.0001477,
    "INCLINATION": 53.2196,
    "RA_OF_ASC_NODE": 33.7381,
    "ARG_OF_PERICENTER": 93.812,
    "MEAN_ANOMALY": 266.3041,
    "EPHEMERIS_TYPE": 0,
    "CLASSIFICATION_TYPE": "U",
    "NORAD_CAT_ID": 49432,
    "ELEMENT_SET_NO": 999,
    "REV_AT_EPOCH": 22079,
    "BSTAR": 3.1284e-05,
    "MEAN_MOTION_DOT": 2.1e-06,
    "MEAN_MOTION_DDOT": 0.0,
    "TLE_LINE1": "1 49432U 21104AA  25314.59943273  .00000210  00000+0  31284-4 0  9991",
    "TLE_LINE2": "2 49432  53.2196  33.7381 0001477  93.8120 266.3041 15.08845301220794",
    "COMMENT": "Grouped by shell and plane from TLE"
  },
  {
    "OBJECT_NAME": "STARLINK-3122",
    "OBJECT_ID": "21104AP",
    "EPOCH": "2025-11-10T15:10:56.824032",
    "MEAN_MOTION": 15.08846855,
    "ECCENTRICITY": 0.0001524,
    "INCLINATION": 53.2189,
    "RA_OF_ASC_NODE": 33.9803,
    "ARG_OF_PERICENTER": 98.906,
    "MEAN_ANOMALY": 261.2105,
    "EPHEMERIS_TYPE": 0,
    "CLASSIFICATION_TYPE": "U",
    "NORAD_CAT_ID": 49445,
    "ELEMENT_SET_NO": 999,
    "REV_AT_EPOCH": 22079,
    "BSTAR": 5.347300000000001e-05,
    "MEAN_MOTION_DOT": 5.63e-06,
    "MEAN_MOTION_DDOT": 0.0,
    "TLE_LINE1": "1 49445U 21104AP  25314.63260213  .00000563  00000+0  53473-4 0  9991",
    "TLE_LINE2": "2 49445  53.2189  33.9803 0001524  98.9060 261.2105 15.08846855220793",
    "COMMENT": "Grouped by shell and plane from TLE"
  },
  {
    "OBJECT_NAME": "STARLINK-3115",
    "OBJECT_ID": "21104AR",
    "EPOCH": "2025-11-11T05:59:45.973824",
    "MEAN_MOTION": 15.08843334,
    "ECCENTRICITY": 0.0001054,
    "INCLINATION": 53.2184,
    "RA_OF_ASC_NODE": 30.8169,
    "ARG_OF_PERICENTER": 92.0627,
    "MEAN_ANOMALY": 268.0486,
    "EPHEMERIS_TYPE": 0,
    "CLASSIFICATION_TYPE": "U",
    "NORAD_CAT_ID": 49447,
    "ELEMENT_SET_NO": 999,
    "REV_AT_EPOCH": 22089,
    "BSTAR": 8.9403e-05,
    "MEAN_MOTION_DOT": 1.135e-05,
    "MEAN_MOTION_DDOT": 0.0,
    "TLE_LINE1": "1 49447U 21104AR  25315.24983766  .00001135  00000+0  89403-4 0  9994",
    "TLE_LINE2": "2 49447  53.2184  30.8169 0001054  92.0627 268.0486 15.08843334220890",
    "COMMENT": "Grouped by shell and plane from TLE"
  },
  {
    "OBJECT_NAME": "STARLINK-3137",
    "OBJECT_ID": "21104AT",
    "EPOCH": "2025-11-11T05:45:12.166560",
    "MEAN_MOTION": 15.08874024,
    "ECCENTRICITY": 0.0002153,
    "INCLINATION": 53.2198,
    "RA_OF_ASC_NODE": 30.8098,
    "ARG_OF_PERICENTER": 101.5772,
    "MEAN_ANOMALY": 258.5462,
    "EPHEMERIS_TYPE": 0,
    "CLASSIFICATION_TYPE": "U",
    "NORAD_CAT_ID": 49449,
    "ELEMENT_SET_NO": 999,
    "REV_AT_EPOCH": 22089,
    "BSTAR": 0.00032499,
    "MEAN_MOTION_DOT": 4.893e-05,
    "MEAN_MOTION_DDOT": 0.0,
    "TLE_LINE1": "1 49449U 21104AT  25315.23972415  .00004893  00000+0  32499-3 0  9990",
    "TLE_LINE2": "2 49449  53.2198  30.8098 0002153 101.5772 258.5462 15.08874024220894",
    "COMMENT": "Grouped by shell and plane from TLE"
  },
  {
    "OBJECT_NAME": "STARLINK-3127",
    "OBJECT_ID": "21104AU",
    "EPOCH": "2025-11-11T04:34:59.940192",
    "MEAN_MOTION": 15.08831938,
    "ECCENTRICITY": 0.0001132,
    "INCLINATION": 53.2182,
    "RA_OF_ASC_NODE": 31.1198,
    "ARG_OF_PERICENTER": 97.8212,
    "MEAN_ANOMALY": 262.2909,
    "EPHEMERIS_TYPE": 0,
    "CLASSIFICATION_TYPE": "U",
    "NORAD_CAT_ID": 49450,
    "ELEMENT_SET_NO": 999,
    "REV_AT_EPOCH": 22114,
    "BSTAR": 8.4344e-05,
    "MEAN_MOTION_DOT": 1.055e-05,
    "MEAN_MOTION_DDOT": 0.0,
    "TLE_LINE1": "1 49450U 21104AU  25315.19097153  .00001055  00000+0  84344-4 0  9998",
    "TLE_LINE2": "2 49450  53.2182  31.1198 0001132  97.8212 262.2909 15.08831938221140",
    "COMMENT": "Grouped by shell and plane from TLE"
  }
]